{"fetched_at":"2026-07-18T06:27:45.816Z","source":"https://celestrak.org/NORAD/elements/gp.php?GROUP=oneweb&FORMAT=JSON","constellation":"oneweb","records":[{"OBJECT_NAME":"ONEWEB-0403","OBJECT_ID":"2021-132Q","EPOCH":"2026-07-17T20:21:36.014400","CLASSIFICATION_TYPE":"U","MEAN_MOTION":13.18686747,"ECCENTRICITY":0.00018293,"INCLINATION":87.92,"RA_OF_ASC_NODE":329.3593,"ARG_OF_PERICENTER":93.8922,"MEAN_ANOMALY":266.2419,"EPHEMERIS_TYPE":0,"NORAD_CAT_ID":50483,"ELEMENT_SET_NO":999,"REV_AT_EPOCH":22563,"BSTAR":0.000079148809,"MEAN_MOTION_DOT":4.4e-7,"MEAN_MOTION_DDOT":0},{"OBJECT_NAME":"ONEWEB-0404","OBJECT_ID":"2021-132R","EPOCH":"2026-07-17T22:14:10.644576","CLASSIFICATION_TYPE":"U","MEAN_MOTION":13.11418345,"ECCENTRICITY":0.00017777,"INCLINATION":87.889,"RA_OF_ASC_NODE":14.9463,"ARG_OF_PERICENTER":81.1763,"MEAN_ANOMALY":278.9566,"EPHEMERIS_TYPE":0,"NORAD_CAT_ID":50484,"ELEMENT_SET_NO":999,"REV_AT_EPOCH":21972,"BSTAR":0.00054783661,"MEAN_MOTION_DOT":0.00000207,"MEAN_MOTION_DDOT":0},{"OBJECT_NAME":"ONEWEB-0405","OBJECT_ID":"2021-132S","EPOCH":"2026-07-17T20:41:01.457088","CLASSIFICATION_TYPE":"U","MEAN_MOTION":13.18684617,"ECCENTRICITY":0.00023608,"INCLINATION":87.9202,"RA_OF_ASC_NODE":329.342,"ARG_OF_PERICENTER":95.7311,"MEAN_ANOMALY":264.409,"EPHEMERIS_TYPE":0,"NORAD_CAT_ID":50485,"ELEMENT_SET_NO":999,"REV_AT_EPOCH":22603,"BSTAR":0.000046658381,"MEAN_MOTION_DOT":3.1e-7,"MEAN_MOTION_DDOT":0},{"OBJECT_NAME":"ONEWEB-0406","OBJECT_ID":"2021-132T","EPOCH":"2026-07-17T22:18:08.244576","CLASSIFICATION_TYPE":"U","MEAN_MOTION":13.18687041,"ECCENTRICITY":0.00016833,"INCLINATION":87.9196,"RA_OF_ASC_NODE":329.3432,"ARG_OF_PERICENTER":82.2218,"MEAN_ANOMALY":277.9105,"EPHEMERIS_TYPE":0,"NORAD_CAT_ID":50486,"ELEMENT_SET_NO":999,"REV_AT_EPOCH":22567,"BSTAR":0.000025227149,"MEAN_MOTION_DOT":2.3e-7,"MEAN_MOTION_DDOT":0},{"OBJECT_NAME":"ONEWEB-0407","OBJECT_ID":"2021-132U","EPOCH":"2026-07-17T20:19:08.905440","CLASSIFICATION_TYPE":"U","MEAN_MOTION":13.18685735,"ECCENTRICITY":0.00020164,"INCLINATION":87.9201,"RA_OF_ASC_NODE":329.3529,"ARG_OF_PERICENTER":104.5382,"MEAN_ANOMALY":255.5974,"EPHEMERIS_TYPE":0,"NORAD_CAT_ID":50487,"ELEMENT_SET_NO":999,"REV_AT_EPOCH":22560,"BSTAR":-0.00058197041,"MEAN_MOTION_DOT":-0.00000217,"MEAN_MOTION_DDOT":0},{"OBJECT_NAME":"ONEWEB-0409","OBJECT_ID":"2021-132V","EPOCH":"2026-07-17T22:11:44.361600","CLASSIFICATION_TYPE":"U","MEAN_MOTION":13.11418629,"ECCENTRICITY":0.00018852,"INCLINATION":87.8893,"RA_OF_ASC_NODE":14.936,"ARG_OF_PERICENTER":82.3329,"MEAN_ANOMALY":277.8013,"EPHEMERIS_TYPE":0,"NORAD_CAT_ID":50488,"ELEMENT_SET_NO":999,"REV_AT_EPOCH":21961,"BSTAR":0.00028079568,"MEAN_MOTION_DOT":0.00000112,"MEAN_MOTION_DDOT":0},{"OBJECT_NAME":"ONEWEB-0412","OBJECT_ID":"2021-132W","EPOCH":"2026-07-17T21:51:25.918560","CLASSIFICATION_TYPE":"U","MEAN_MOTION":13.18686525,"ECCENTRICITY":0.00017046,"INCLINATION":87.9199,"RA_OF_ASC_NODE":329.3477,"ARG_OF_PERICENTER":107.7046,"MEAN_ANOMALY":252.4272,"EPHEMERIS_TYPE":0,"NORAD_CAT_ID":50489,"ELEMENT_SET_NO":999,"REV_AT_EPOCH":22570,"BSTAR":0.000004331723,"MEAN_MOTION_DOT":1.5e-7,"MEAN_MOTION_DDOT":0},{"OBJECT_NAME":"ONEWEB-0413","OBJECT_ID":"2021-132X","EPOCH":"2026-07-17T21:58:42.534912","CLASSIFICATION_TYPE":"U","MEAN_MOTION":13.1868758,"ECCENTRICITY":0.00018776,"INCLINATION":87.9191,"RA_OF_ASC_NODE":329.3429,"ARG_OF_PERICENTER":108.8532,"MEAN_ANOMALY":251.2803,"EPHEMERIS_TYPE":0,"NORAD_CAT_ID":50490,"ELEMENT_SET_NO":999,"REV_AT_EPOCH":22564,"BSTAR":-0.00021099005,"MEAN_MOTION_DOT":-7e-7,"MEAN_MOTION_DDOT":0},{"OBJECT_NAME":"ONEWEB-0414","OBJECT_ID":"2021-132Y","EPOCH":"2026-07-17T21:36:51.664608","CLASSIFICATION_TYPE":"U","MEAN_MOTION":13.18686985,"ECCENTRICITY":0.00017208,"INCLINATION":87.92,"RA_OF_ASC_NODE":329.3311,"ARG_OF_PERICENTER":101.0411,"MEAN_ANOMALY":259.0915,"EPHEMERIS_TYPE":0,"NORAD_CAT_ID":50491,"ELEMENT_SET_NO":999,"REV_AT_EPOCH":22567,"BSTAR":-0.00012520962,"MEAN_MOTION_DOT":-3.6e-7,"MEAN_MOTION_DDOT":0},{"OBJECT_NAME":"ONEWEB-0417","OBJECT_ID":"2021-132Z","EPOCH":"2026-07-17T21:48:59.797152","CLASSIFICATION_TYPE":"U","MEAN_MOTION":13.18687215,"ECCENTRICITY":0.0001855,"INCLINATION":87.9193,"RA_OF_ASC_NODE":329.3463,"ARG_OF_PERICENTER":92.9478,"MEAN_ANOMALY":267.1866,"EPHEMERIS_TYPE":0,"NORAD_CAT_ID":50492,"ELEMENT_SET_NO":999,"REV_AT_EPOCH":22565,"BSTAR":-0.000081878002,"MEAN_MOTION_DOT":-1.9e-7,"MEAN_MOTION_DDOT":0},{"OBJECT_NAME":"ONEWEB-0418","OBJECT_ID":"2021-132AA","EPOCH":"2026-07-17T22:03:22.317984","CLASSIFICATION_TYPE":"U","MEAN_MOTION":13.18686108,"ECCENTRICITY":0.00018513,"INCLINATION":87.9197,"RA_OF_ASC_NODE":329.3457,"ARG_OF_PERICENTER":90.9024,"MEAN_ANOMALY":269.232,"EPHEMERIS_TYPE":0,"NORAD_CAT_ID":50493,"ELEMENT_SET_NO":999,"REV_AT_EPOCH":22571,"BSTAR":0.000011208926,"MEAN_MOTION_DOT":1.7e-7,"MEAN_MOTION_DDOT":0},{"OBJECT_NAME":"ONEWEB-0419","OBJECT_ID":"2021-132AB","EPOCH":"2026-07-17T20:41:33.922752","CLASSIFICATION_TYPE":"U","MEAN_MOTION":13.18665554,"ECCENTRICITY":0.00020896,"INCLINATION":87.9199,"RA_OF_ASC_NODE":329.358,"ARG_OF_PERICENTER":92.5662,"MEAN_ANOMALY":267.5709,"EPHEMERIS_TYPE":0,"NORAD_CAT_ID":50494,"ELEMENT_SET_NO":999,"REV_AT_EPOCH":22562,"BSTAR":0.00010511779,"MEAN_MOTION_DOT":5.4e-7,"MEAN_MOTION_DDOT":0},{"OBJECT_NAME":"ONEWEB-0420","OBJECT_ID":"2021-132AC","EPOCH":"2026-07-17T21:39:16.678368","CLASSIFICATION_TYPE":"U","MEAN_MOTION":13.18684413,"ECCENTRICITY":0.00020434,"INCLINATION":87.9193,"RA_OF_ASC_NODE":329.3498,"ARG_OF_PERICENTER":103.7795,"MEAN_ANOMALY":256.3564,"EPHEMERIS_TYPE":0,"NORAD_CAT_ID":50495,"ELEMENT_SET_NO":999,"REV_AT_EPOCH":22562,"BSTAR":-0.00021494587,"MEAN_MOTION_DOT":-7.2e-7,"MEAN_MOTION_DDOT":0},{"OBJECT_NAME":"ONEWEB-0421","OBJECT_ID":"2021-132AD","EPOCH":"2026-07-17T21:29:35.789568","CLASSIFICATION_TYPE":"U","MEAN_MOTION":13.18686246,"ECCENTRICITY":0.00015843,"INCLINATION":87.9194,"RA_OF_ASC_NODE":329.3495,"ARG_OF_PERICENTER":105.7831,"MEAN_ANOMALY":254.3476,"EPHEMERIS_TYPE":0,"NORAD_CAT_ID":50496,"ELEMENT_SET_NO":999,"REV_AT_EPOCH":22566,"BSTAR":-0.00011982434,"MEAN_MOTION_DOT":-3.4e-7,"MEAN_MOTION_DDOT":0},{"OBJECT_NAME":"ONEWEB-0424","OBJECT_ID":"2021-132AE","EPOCH":"2026-07-17T20:33:44.305920","CLASSIFICATION_TYPE":"U","MEAN_MOTION":13.18686697,"ECCENTRICITY":0.00021821,"INCLINATION":87.9197,"RA_OF_ASC_NODE":329.3575,"ARG_OF_PERICENTER":92.9563,"MEAN_ANOMALY":267.1819,"EPHEMERIS_TYPE":0,"NORAD_CAT_ID":50497,"ELEMENT_SET_NO":999,"REV_AT_EPOCH":22568,"BSTAR":0.00010545371,"MEAN_MOTION_DOT":5.4e-7,"MEAN_MOTION_DDOT":0},{"OBJECT_NAME":"ONEWEB-0426","OBJECT_ID":"2021-132AF","EPOCH":"2026-07-17T21:23:31.004448","CLASSIFICATION_TYPE":"U","MEAN_MOTION":13.1868612,"ECCENTRICITY":0.00013119,"INCLINATION":87.9202,"RA_OF_ASC_NODE":329.3408,"ARG_OF_PERICENTER":86.1526,"MEAN_ANOMALY":273.9757,"EPHEMERIS_TYPE":0,"NORAD_CAT_ID":50498,"ELEMENT_SET_NO":999,"REV_AT_EPOCH":22563,"BSTAR":0.0000085674,"MEAN_MOTION_DOT":1.6e-7,"MEAN_MOTION_DDOT":0}]}
